STARLINK-30771          
1 58169U 23166V   24106.50256562 -.00008519  00000+0 -29536-3 0  9993
2 58169  53.1174 197.7417 0002675  37.5216 322.5970 15.27999727 27074
STARLINK-30764          
1 58170U 23166W   24106.56293600  .00011031  00000+0  40984-3 0  9996
2 58170  53.1203 197.3948 0001559  80.4441 279.6734 15.28059052 27081
STARLINK-30752          
1 58171U 23166X   24106.58334491 -.00064673  00000+0 -23450-2 0  9993
2 58171  53.1189 197.4607 0000943  65.3432 327.9553 15.27986117 27105
STARLINK-30753          
1 58175U 23167A   24105.89313929  .00002012  00000+0  16394-3 0  9991
2 58175  43.0041 315.5472 0001291 267.8222  92.2473 15.02545301 26594
STARLINK-30824          
1 58176U 23167B   24105.95850843  .00005703  00000+0  43678-3 0  9995
2 58176  43.0033 315.1775 0001572 261.8658  98.2006 15.02548929 26550
STARLINK-30791          
1 58177U 23167C   24106.57346390  .00001120  00000+0  97947-4 0  9990
2 58177  43.0046 312.0377 0001597 302.4939  57.5749 15.02533890 26643
STARLINK-30810          
1 58178U 23167D   24105.95196918 -.00001544  00000+0 -99201-4 0  9998
2 58178  43.0045 315.9767 0001271 295.1956  64.8754 15.02548747 26547
STARLINK-30819          
1 58179U 23167E   24106.54694579  .00000854  00000+0  78329-4 0  9990
2 58179  43.0038 312.6984 0001379 280.4814  79.5873 15.02529599 26688
STARLINK-30806          
1 58180U 23167F   24106.54360024  .00002089  00000+0  16968-3 0  9999
2 58180  43.0045 312.6702 0001397 254.6474 105.4214 15.02541189 26633
STARLINK-30821          
1 58181U 23167G   24105.77239608  .00002064  00000+0  16781-3 0  9993
2 58181  43.0036 316.3459 0001139 286.0391  74.0326 15.02541015 26571
STARLINK-30778          
1 58182U 23167H   24105.90202212  .00010313  00000+0  77701-3 0  9995
2 58182  43.0039 315.5949 0001780 265.0027  95.0613 15.02554576 26540
STARLINK-30809          
1 58183U 23167J   24106.00845660  .00003836  00000+0  29887-3 0  9992
2 58183  43.0037 315.5364 0001968 256.8110 103.2513 15.02534815 26555
STARLINK-30801          
1 58184U 23167K   24106.00513984 -.00007606  00000+0 -54894-3 0  9991
2 58184  43.0042 315.5069 0002069 247.2690 112.7934 15.02507234 26551
STARLINK-30793          
1 58185U 23167L   24105.76572181  .00004228  00000+0  32783-3 0  9996
2 58185  43.0052 316.2834 0004225 217.0482 143.0069 15.02539156 26577
STARLINK-30755          
1 58186U 23167M   24105.73130543  .00008885  00000+0  65747-3 0  9995
2 58186  43.0021 316.8978 0001784 265.3653  94.6986 15.03362767 26563
STARLINK-30760          
1 58187U 23167N   24105.76240907  .00002431  00000+0  19495-3 0  9995
2 58187  43.0030 316.2704 0001277 284.9107  75.1594 15.02543904 26576
STARLINK-30826          
1 58188U 23167P   24105.72922491  .00016118  00000+0  12053-2 0  9996
2 58188  43.0037 316.8777 0001775 251.3871 108.6779 15.02541007 26567
STARLINK-30796          
1 58189U 23167Q   24105.93198288  .00006637  00000+0  50588-3 0  9990
2 58189  43.0041 315.8144 0002785 235.3575 124.7005 15.02541406 26547
STARLINK-30820          
1 58190U 23167R   24106.00179131  .00003283  00000+0  25797-3 0  9995
2 58190  43.0021 315.4778 0001727 260.2810  99.7838 15.02543026 26602
STARLINK-30785          
1 58191U 23167S   24105.78904448  .00000848  00000+0  77833-4 0  9990
2 58191  43.0036 316.4688 0001209 265.9742  94.0962 15.02539295 26576
STARLINK-30807          
1 58192U 23167T   24105.79237587  .00001396  00000+0  11839-3 0  9997
2 58192  43.0033 316.4932 0001101 270.8069  89.2648 15.02537332 26571
STARLINK-30822          
1 58193U 23167U   24105.91866967  .00002215  00000+0  17895-3 0  9991
2 58193  43.0039 315.7211 0001491 268.1362  91.9309 15.02537958 26598
STARLINK-30830          
1 58194U 23167V   24105.91977094  .00002767  00000+0  21976-3 0  9993
2 58194  43.0018 315.7207 0001470 261.9659  98.1017 15.02550697 26598
STARLINK-30827          
1 58195U 23167W   24105.71257468  .00006729  00000+0  51269-3 0  9998
2 58195  43.0028 316.7567 0001628 278.7931  81.2727 15.02539934 26563
STARLINK-30798          
1 58196U 23167X   24105.68938605  .00003790  00000+0  29541-3 0  9997
2 58196  43.0023 317.4376 0001506 262.7094  97.3577 15.02540946 26558
STARLINK-30762          
1 58197U 23167Y   24105.71590266  .00002394  00000+0  19217-3 0  9997
2 58197  43.0026 316.7778 0001530 259.7109 100.3560 15.02548026 26565
STARLINK-30800          
1 58206U 23170A   24106.10673124  .00002886  00000+0  22862-3 0  9997
2 58206  43.0047   4.9054 0001732 256.3926 103.6724 15.02542029 25964
STARLINK-30845          
1 58207U 23170B   24106.13658206  .00003741  00000+0  29192-3 0  9999
2 58207  43.0053   4.2903 0001514 246.7963 113.2720 15.02531994 25984
STARLINK-30841          
1 58208U 23170C   24106.11671526  .00003816  00000+0  29732-3 0  9991
2 58208  43.0044   4.9629 0001558 264.6718  95.3947 15.02544660 25842
STARLINK-30839          
1 58209U 23170D   24106.09674543 -.00000309  00000+0 -77959-5 0  9993
2 58209  43.0014   4.8302 0000483 298.8728  61.2065 15.02542765 25963
STARLINK-30846          
1 58210U 23170E   24105.10290306  .00000550  00000+0  55769-4 0  9997
2 58210  43.0058  10.2706 0001209 263.5060  96.5645 15.02539885 25792
STARLINK-30838          
1 58211U 23170F   24106.09008659  .00000562  00000+0  56691-4 0  9993
2 58211  43.0050   4.7789 0001361 265.8039  94.2648 15.02530799 25966
STARLINK-30837          
1 58212U 23170G   24106.10339295 -.00005678  00000+0 -40565-3 0  9996
2 58212  43.0053   4.8593 0001220 264.0858  95.9846 15.02527720 25977
STARLINK-30813          
1 58213U 23170H   24106.08674537 -.00003555  00000+0 -24834-3 0  9998
2 58213  43.0046   4.7507 0000334 331.0586  29.0238 15.02520547 25841
STARLINK-30805          
1 58214U 23170J   24106.08341804  .00002822  00000+0  22393-3 0  9999
2 58214  43.0063   4.7273 0001757 253.0517 107.0133 15.02537479 25953
STARLINK-30851          
1 58215U 23170K   24105.74770315  .00000254  00000+0  33900-4 0  9999
2 58215  43.0036   6.5068 0001264 245.3046 114.7665 15.02538238 25892
STARLINK-30786          
1 58216U 23170L   24105.96756960  .00013546  00000+0  42892-3 0  9991
2 58216  43.0006 323.5948 0001602 259.1904 100.8769 15.32619690 26438
STARLINK-30818          
1 58217U 23170M   24106.13990597  .00004373  00000+0  33857-3 0  9997
2 58217  43.0097   4.2908 0003164 241.7857 118.2666 15.02540389 25979
STARLINK-30794          
1 58218U 23170N   24105.89396478 -.00012541  00000+0 -91513-3 0  9999
2 58218  43.0060   5.8681 0001781 240.8905 119.1760 15.02528996 25911
STARLINK-30835          
1 58219U 23170P   24105.73438434  .00000096  00000+0  22165-4 0  9990
2 58219  43.0041   6.4072 0001362 252.1018 107.9675 15.02538380 25893
STARLINK-30792          
1 58220U 23170Q   24106.06343926  .00013671  00000+0  10251-2 0  9994
2 58220  43.0036   4.5770 0001883 261.0563  99.0066 15.02536165 25967
STARLINK-30836          
1 58221U 23170R   24106.12659002 -.00000152  00000+0  38471-5 0  9995
2 58221  43.0049   4.1910 0001262 264.6960  95.3738 15.02540488 25851
STARLINK-30855          
1 58222U 23170S   24106.11338272  .00000179  00000+0  28365-4 0  9996
2 58222  43.0035   4.9328 0002091 245.8188 114.2436 15.02545472 25856
STARLINK-30840          
1 58223U 23170T   24105.71119360  .00000182  00000+0  28557-4 0  9994
2 58223  43.0049   7.0732 0001349 253.7727 106.2967 15.02538473 25883
STARLINK-30875          
1 58224U 23170U   24106.07676548  .00000303  00000+0  37483-4 0  9994
2 58224  43.0048   4.6636 0001406 264.3245  95.7437 15.02528133 25905
STARLINK-30872          
1 58225U 23170V   24106.09727758  .00003380  00000+0  20240-3 0  9997
2 58225  43.0046 351.2453 0002469 245.3617 114.6972 15.12672941 24939
STARLINK-30865          
1 58226U 23170W   24105.88907700  .00033455  00000+0  24777-2 0  9995
2 58226  43.0028 354.8029 0001398 232.5243 127.5473 15.02568491 26047
STARLINK-30874          
1 58227U 23170X   24105.99040858  .00005638  00000+0  43196-3 0  9999
2 58227  43.0093   5.7257 0003895 235.0699 124.9778 15.02547168 25835
STARLINK-30871          
1 58228U 23170Y   24106.05356910  .00001252  00000+0  10772-3 0  9999
2 58228  43.0055   5.3446 0001840 258.0862 101.9774 15.02533462 24758
STARLINK-30861          
1 58230U 23171A   24106.11808069  .00000602  00000+0  59596-4 0  9993
2 58230  43.0006  94.7239 0000256 247.6351 112.4464 15.02535097 25419
STARLINK-30867          
1 58231U 23171B   24106.32084271  .00000511  00000+0  52930-4 0  9992
2 58231  43.0044  93.6649 0001259 267.6565  92.4133 15.02527183 25448
STARLINK-30880          
1 58232U 23171C   24106.32417120  .00001301  00000+0  11136-3 0  9996
2 58232  43.0022  93.6899 0001252 278.6516  81.4184 15.02540256 25386
STARLINK-30777          
1 58233U 23171D   24105.99843537  .00001722  00000+0  14250-3 0  9991
2 58233  43.0032  95.5409 0001064 255.5045 104.5679 15.02539834 25339
STARLINK-30860          
1 58234U 23171E   24106.46044053  .00001889  00000+0  15481-3 0  9992
2 58234  43.0040  92.9887 0000909 253.5362 106.5381 15.02549042 25465
STARLINK-30879          
1 58235U 23171F   24106.38064848  .00000174  00000+0  27935-4 0  9992
2 58235  43.0035  93.2389 0001000 265.9562  94.1166 15.02546513 25398
STARLINK-30853          
1 58236U 23171G   24106.33414487 -.00001076  00000+0 -64580-4 0  9997
2 58236  43.0032  93.7598 0001366 278.3367  81.7320 15.02544145 25448
STARLINK-30866          
1 58237U 23171H   24106.17123042  .00001882  00000+0  15432-3 0  9998
2 58237  43.0027  94.2539 0000919 266.7289  93.3448 15.02539115 25419
STARLINK-30817          
1 58238U 23171J   24106.00509330  .00001754  00000+0  14487-3 0  9996
2 58238  43.0008  95.5854 0000448 227.0696 133.0109 15.02542802 25392
STARLINK-30847          
1 58239U 23171K   24106.14137966 -.00000254  00000+0 -37275-5 0  9992
2 58239  43.0024  94.8892 0001343 256.5097 103.5596 15.02530739 25413
